{
  "norad_id": 54003,
  "name": "STARLINK-5114",
  "history": [
    {
      "epoch": "2026-03-28T19:43:15.565152Z",
      "apogee_km": 540.7392923799489,
      "perigee_km": 538.7156786606447,
      "latitude_deg": 4.031213778528037e-05,
      "longitude_deg": 5.983026983987656,
      "height_km": 540.5712567511632,
      "semi_major_axis_km": 6917.8644855202965,
      "eccentricity": 0.00014626,
      "inclination_deg": 53.2172,
      "raan_deg": 128.0345,
      "arg_perigee_deg": 87.0671,
      "mean_anomaly_deg": 273.0489,
      "mean_motion_rev_day": 15.08845203
    },
    {
      "epoch": "2026-03-29T02:04:48.052128Z",
      "apogee_km": 540.7365422933071,
      "perigee_km": 538.7317432361342,
      "latitude_deg": -6.194679163892633e-06,
      "longitude_deg": -90.85352586301947,
      "height_km": 540.5972999569329,
      "semi_major_axis_km": 6917.87114276472,
      "eccentricity": 0.0001449,
      "inclination_deg": 53.2171,
      "raan_deg": 126.8445,
      "arg_perigee_deg": 88.1479,
      "mean_anomaly_deg": 271.9679,
      "mean_motion_rev_day": 15.08843025
    }
  ]
}